CCSDS_OMM_VERS = 2.0
CREATION_DATE  = 
ORIGINATOR     = 

OBJECT_NAME    = KUIPER-00275
OBJECT_ID      = 2026-030AF
CENTER_NAME    = EARTH
REF_FRAME      = TEME
TIME_SYSTEM    = UTC
MEAN_ELEMENT_THEORY = SGP/SGP4

EPOCH          = 2026-03-09T15:30:58.237632
MEAN_MOTION    = 15.34747618
ECCENTRICITY   = .00093156
INCLINATION    = 51.8839
RA_OF_ASC_NODE = 219.5354
ARG_OF_PERICENTER = 54.0522
MEAN_ANOMALY   = 306.1327

EPHEMERIS_TYPE = 0
CLASSIFICATION_TYPE = U
NORAD_CAT_ID   = 67793
ELEMENT_SET_NO = 999
REV_AT_EPOCH   = 508
BSTAR          = .64663047E-3
MEAN_MOTION_DOT = .21821E-3
MEAN_MOTION_DDOT = 0

CCSDS_OMM_VERS = 2.0
CREATION_DATE  = 
ORIGINATOR     = 

OBJECT_NAME    = KUIPER-00276
OBJECT_ID      = 2026-030AG
CENTER_NAME    = EARTH
REF_FRAME      = TEME
TIME_SYSTEM    = UTC
MEAN_ELEMENT_THEORY = SGP/SGP4

EPOCH          = 2026-03-09T14:00:01.999872
MEAN_MOTION    = 15.30238389
ECCENTRICITY   = .00186886
INCLINATION    = 51.8824
RA_OF_ASC_NODE = 220.3214
ARG_OF_PERICENTER = 67.0378
MEAN_ANOMALY   = 63.5334

EPHEMERIS_TYPE = 0
CLASSIFICATION_TYPE = U
NORAD_CAT_ID   = 67794
ELEMENT_SET_NO = 999
REV_AT_EPOCH   = 477
BSTAR          = -.38868013E-3
MEAN_MOTION_DOT = -.11954E-3
MEAN_MOTION_DDOT = 0

CCSDS_OMM_VERS = 2.0
CREATION_DATE  = 
ORIGINATOR     = 

OBJECT_NAME    = KUIPER-00279
OBJECT_ID      = 2026-030AH
CENTER_NAME    = EARTH
REF_FRAME      = TEME
TIME_SYSTEM    = UTC
MEAN_ELEMENT_THEORY = SGP/SGP4

EPOCH          = 2026-03-09T15:18:32.161536
MEAN_MOTION    = 15.35417463
ECCENTRICITY   = .00064919
INCLINATION    = 51.8796
RA_OF_ASC_NODE = 219.4677
ARG_OF_PERICENTER = 47.8727
MEAN_ANOMALY   = 312.2810

EPHEMERIS_TYPE = 0
CLASSIFICATION_TYPE = U
NORAD_CAT_ID   = 67795
ELEMENT_SET_NO = 999
REV_AT_EPOCH   = 508
BSTAR          = .63535216E-3
MEAN_MOTION_DOT = .21889E-3
MEAN_MOTION_DDOT = 0

CCSDS_OMM_VERS = 2.0
CREATION_DATE  = 
ORIGINATOR     = 

OBJECT_NAME    = CREW DRAGON 12
OBJECT_ID      = 2026-031A
CENTER_NAME    = EARTH
REF_FRAME      = TEME
TIME_SYSTEM    = UTC
MEAN_ELEMENT_THEORY = SGP/SGP4

EPOCH          = 2026-03-09T10:46:14.833056
MEAN_MOTION    = 15.48542052
ECCENTRICITY   = .00080269
INCLINATION    = 51.6321
RA_OF_ASC_NODE = 73.5472
ARG_OF_PERICENTER = 173.5451
MEAN_ANOMALY   = 186.5642

EPHEMERIS_TYPE = 0
CLASSIFICATION_TYPE = U
NORAD_CAT_ID   = 67796
ELEMENT_SET_NO = 999
REV_AT_EPOCH   = 55618
BSTAR          = .15191697E-3
MEAN_MOTION_DOT = .7802E-4
MEAN_MOTION_DDOT = 0

CCSDS_OMM_VERS = 2.0
CREATION_DATE  = 
ORIGINATOR     = 

OBJECT_NAME    = STARLINK-36800
OBJECT_ID      = 2026-032A
CENTER_NAME    = EARTH
REF_FRAME      = TEME
TIME_SYSTEM    = UTC
MEAN_ELEMENT_THEORY = SGP/SGP4

EPOCH          = 2026-03-09T13:35:43.645632
MEAN_MOTION    = 15.75228498
ECCENTRICITY   = .00015318
INCLINATION    = 97.2850
RA_OF_ASC_NODE = 255.0420
ARG_OF_PERICENTER = 69.5617
MEAN_ANOMALY   = 290.5813

EPHEMERIS_TYPE = 0
CLASSIFICATION_TYPE = U
NORAD_CAT_ID   = 67797
ELEMENT_SET_NO = 999
REV_AT_EPOCH   = 476
BSTAR          = .1001981E-2
MEAN_MOTION_DOT = .15227E-2
MEAN_MOTION_DDOT = 0

CCSDS_OMM_VERS = 2.0
CREATION_DATE  = 
ORIGINATOR     = 

OBJECT_NAME    = STARLINK-36798
OBJECT_ID      = 2026-032B
CENTER_NAME    = EARTH
REF_FRAME      = TEME
TIME_SYSTEM    = UTC
MEAN_ELEMENT_THEORY = SGP/SGP4

EPOCH          = 2026-03-09T14:43:49.648512
MEAN_MOTION    = 15.75246643
ECCENTRICITY   = .00012971
INCLINATION    = 97.2849
RA_OF_ASC_NODE = 255.1315
ARG_OF_PERICENTER = 89.3714
MEAN_ANOMALY   = 270.7699

EPHEMERIS_TYPE = 0
CLASSIFICATION_TYPE = U
NORAD_CAT_ID   = 67798
ELEMENT_SET_NO = 999
REV_AT_EPOCH   = 477
BSTAR          = .11319915E-2
MEAN_MOTION_DOT = .172591E-2
MEAN_MOTION_DDOT = 0

CCSDS_OMM_VERS = 2.0
CREATION_DATE  = 
ORIGINATOR     = 

OBJECT_NAME    = STARLINK-36804
OBJECT_ID      = 2026-032C
CENTER_NAME    = EARTH
REF_FRAME      = TEME
TIME_SYSTEM    = UTC
MEAN_ELEMENT_THEORY = SGP/SGP4

EPOCH          = 2026-03-09T13:33:11.130624
MEAN_MOTION    = 15.75208123
ECCENTRICITY   = .00014512
INCLINATION    = 97.2851
RA_OF_ASC_NODE = 255.0446
ARG_OF_PERICENTER = 95.2388
MEAN_ANOMALY   = 264.9042

EPHEMERIS_TYPE = 0
CLASSIFICATION_TYPE = U
NORAD_CAT_ID   = 67799
ELEMENT_SET_NO = 999
REV_AT_EPOCH   = 476
BSTAR          = .59283168E-3
MEAN_MOTION_DOT = .89295E-3
MEAN_MOTION_DDOT = 0

CCSDS_OMM_VERS = 2.0
CREATION_DATE  = 
ORIGINATOR     = 

OBJECT_NAME    = STARLINK-36354
OBJECT_ID      = 2026-032D
CENTER_NAME    = EARTH
REF_FRAME      = TEME
TIME_SYSTEM    = UTC
MEAN_ELEMENT_THEORY = SGP/SGP4

EPOCH          = 2026-03-09T14:48:56.700288
MEAN_MOTION    = 15.75079067
ECCENTRICITY   = .00016263
INCLINATION    = 97.2851
RA_OF_ASC_NODE = 255.1279
ARG_OF_PERICENTER = 93.1505
MEAN_ANOMALY   = 266.9946

EPHEMERIS_TYPE = 0
CLASSIFICATION_TYPE = U
NORAD_CAT_ID   = 67800
ELEMENT_SET_NO = 999
REV_AT_EPOCH   = 477
BSTAR          = .1908667E-3
MEAN_MOTION_DOT = .28298E-3
MEAN_MOTION_DDOT = 0

CCSDS_OMM_VERS = 2.0
CREATION_DATE  = 
ORIGINATOR     = 

OBJECT_NAME    = STARLINK-36773
OBJECT_ID      = 2026-032E
CENTER_NAME    = EARTH
REF_FRAME      = TEME
TIME_SYSTEM    = UTC
MEAN_ELEMENT_THEORY = SGP/SGP4

EPOCH          = 2026-03-09T15:00:05.465664
MEAN_MOTION    = 15.75225893
ECCENTRICITY   = .0001469
INCLINATION    = 97.2850
RA_OF_ASC_NODE = 255.1152
ARG_OF_PERICENTER = 89.2414
MEAN_ANOMALY   = 270.9020

EPHEMERIS_TYPE = 0
CLASSIFICATION_TYPE = U
NORAD_CAT_ID   = 67801
ELEMENT_SET_NO = 999
REV_AT_EPOCH   = 477
BSTAR          = .88157205E-3
MEAN_MOTION_DOT = .133647E-2
MEAN_MOTION_DDOT = 0

CCSDS_OMM_VERS = 2.0
CREATION_DATE  = 
ORIGINATOR     = 

OBJECT_NAME    = STARLINK-36739
OBJECT_ID      = 2026-032F
CENTER_NAME    = EARTH
REF_FRAME      = TEME
TIME_SYSTEM    = UTC
MEAN_ELEMENT_THEORY = SGP/SGP4

EPOCH          = 2026-03-09T14:33:40.123296
MEAN_MOTION    = 15.75212776
ECCENTRICITY   = .00013283
INCLINATION    = 97.2849
RA_OF_ASC_NODE = 255.1407
ARG_OF_PERICENTER = 88.4866
MEAN_ANOMALY   = 271.6552

EPHEMERIS_TYPE = 0
CLASSIFICATION_TYPE = U
NORAD_CAT_ID   = 67802
ELEMENT_SET_NO = 999
REV_AT_EPOCH   = 477
BSTAR          = .84908428E-3
MEAN_MOTION_DOT = .128566E-2
MEAN_MOTION_DDOT = 0

CCSDS_OMM_VERS = 2.0
CREATION_DATE  = 
ORIGINATOR     = 

OBJECT_NAME    = STARLINK-36768
OBJECT_ID      = 2026-032G
CENTER_NAME    = EARTH
REF_FRAME      = TEME
TIME_SYSTEM    = UTC
MEAN_ELEMENT_THEORY = SGP/SGP4

EPOCH          = 2026-03-09T14:51:27.096768
MEAN_MOTION    = 15.75224965
ECCENTRICITY   = .0001291
INCLINATION    = 97.2847
RA_OF_ASC_NODE = 255.1229
ARG_OF_PERICENTER = 87.4813
MEAN_ANOMALY   = 272.6600

EPHEMERIS_TYPE = 0
CLASSIFICATION_TYPE = U
NORAD_CAT_ID   = 67803
ELEMENT_SET_NO = 999
REV_AT_EPOCH   = 477
BSTAR          = .83449348E-3
MEAN_MOTION_DOT = .126389E-2
MEAN_MOTION_DDOT = 0

CCSDS_OMM_VERS = 2.0
CREATION_DATE  = 
ORIGINATOR     = 

OBJECT_NAME    = STARLINK-36792
OBJECT_ID      = 2026-032H
CENTER_NAME    = EARTH
REF_FRAME      = TEME
TIME_SYSTEM    = UTC
MEAN_ELEMENT_THEORY = SGP/SGP4

EPOCH          = 2026-03-09T14:55:00.648192
MEAN_MOTION    = 15.75233629
ECCENTRICITY   = .00012727
INCLINATION    = 97.2849
RA_OF_ASC_NODE = 255.1194
ARG_OF_PERICENTER = 83.1834
MEAN_ANOMALY   = 276.9576

EPHEMERIS_TYPE = 0
CLASSIFICATION_TYPE = U
NORAD_CAT_ID   = 67804
ELEMENT_SET_NO = 999
REV_AT_EPOCH   = 477
BSTAR          = .11343592E-2
MEAN_MOTION_DOT = .172861E-2
MEAN_MOTION_DDOT = 0

