KUIPER-00275            
1 67793U 26030AF  26068.64650738  .00021821  00000+0  64663-3 0  9995
2 67793  51.8839 219.5354 0009315  54.0522 306.1327 15.34747618  5084
KUIPER-00276            
1 67794U 26030AG  26068.58335648 -.00011954  00000+0 -38868-3 0  9995
2 67794  51.8824 220.3214 0018688  67.0378  63.5334 15.30238389  4773
KUIPER-00279            
1 67795U 26030AH  26068.63787224  .00021889  00000+0  63535-3 0  9998
2 67795  51.8796 219.4677 0006491  47.8727 312.2810 15.35417463  5082
CREW DRAGON 12          
1 67796U 26031A   26068.44878279  .00007802  00000+0  15192-3 0  9995
2 67796  51.6321  73.5472 0008026 173.5451 186.5642 15.48542052556188
STARLINK-36800          
1 67797U 26032A   26068.56647738  .00152270  00000+0  10020-2 0  9998
2 67797  97.2850 255.0420 0001531  69.5617 290.5813 15.75228498  4767
STARLINK-36798          
1 67798U 26032B   26068.61376908  .00172591  00000+0  11320-2 0  9995
2 67798  97.2849 255.1315 0001297  89.3714 270.7699 15.75246643  4772
STARLINK-36804          
1 67799U 26032C   26068.56471216  .00089295  00000+0  59283-3 0  9997
2 67799  97.2851 255.0446 0001451  95.2388 264.9042 15.75208123  4762
STARLINK-36354          
1 67800U 26032D   26068.61732292  .00028298  00000+0  19087-3 0  9994
2 67800  97.2851 255.1279 0001626  93.1505 266.9946 15.75079067  4771
STARLINK-36773          
1 67801U 26032E   26068.62506326  .00133647  00000+0  88157-3 0  9992
2 67801  97.2850 255.1152 0001469  89.2414 270.9020 15.75225893  4779
STARLINK-36739          
1 67802U 26032F   26068.60671439  .00128566  00000+0  84908-3 0  9993
2 67802  97.2849 255.1407 0001328  88.4866 271.6552 15.75212776  4771
STARLINK-36768          
1 67803U 26032G   26068.61906362  .00126389  00000+0  83449-3 0  9991
2 67803  97.2847 255.1229 0001291  87.4813 272.6600 15.75224965  4770
STARLINK-36792          
1 67804U 26032H   26068.62153528  .00172861  00000+0  11344-2 0  9991
2 67804  97.2849 255.1194 0001272  83.1834 276.9576 15.75233629  4775
